[{"OBJECT_NAME":"STARLINK-2700","OBJECT_ID":"2021-040D","EPOCH":"2026-03-10T00:00:02.999808","MEAN_MOTION":15.11991439,"ECCENTRICITY":5.041e-5,"INCLINATION":53.0768,"RA_OF_ASC_NODE":150.1688,"ARG_OF_PERICENTER":97.2638,"MEAN_ANOMALY":273.4483,"EPHEMERIS_TYPE":0,"CLASSIFICATION_TYPE":"U","NORAD_CAT_ID":48431,"ELEMENT_SET_NO":999,"REV_AT_EPOCH":579,"BSTAR":0.078428308,"MEAN_MOTION_DOT":0.01495167,"MEAN_MOTION_DDOT":0},{"OBJECT_NAME":"ICEYE-X58","OBJECT_ID":"2025-276CP","EPOCH":"2026-03-09T17:41:27.034080","MEAN_MOTION":15.18634062,"ECCENTRICITY":0.0002447,"INCLINATION":97.4274,"RA_OF_ASC_NODE":144.0257,"ARG_OF_PERICENTER":349.5523,"MEAN_ANOMALY":10.566,"EPHEMERIS_TYPE":0,"CLASSIFICATION_TYPE":"U","NORAD_CAT_ID":66751,"ELEMENT_SET_NO":999,"REV_AT_EPOCH":1532,"BSTAR":0.00024630066,"MEAN_MOTION_DOT":5.033e-5,"MEAN_MOTION_DDOT":0}]
